NORAD_CAT_ID,OBJECT_NAME,OBJECT_TYPE,EPOCH,MEAN_MOTION,ECCENTRICITY,INCLINATION,RA_OF_ASC_NODE,ARG_OF_PERICENTER,MEAN_ANOMALY,BSTAR,MEAN_MOTION_DOT,MEAN_MOTION_DDOT,TLE_LINE0,TLE_LINE1,TLE_LINE2,SEMIMAJOR_AXIS,PERIOD,APOGEE,PERIGEE,DECAYED
49725.0,STARLINK-3218,PAYLOAD,2022-11-06 01:16:05,15.08820142,0.0001743,53.2185,224.293,46.4634,313.6502,-0.00018089,-3.164e-05,0.0,0 STARLINK-3218,1 49725U 21115B   22310.05284628 -.00003164  00000-0 -18089-3 0  9995,2 49725  53.2185 224.2930 0001743  46.4634 313.6502 15.08820142 52522,6917.941,95.439,541.012,538.6,0.0
49725.0,STARLINK-3218,PAYLOAD,2022-11-06 10:48:25,15.08817986,0.0001768,53.2184,222.509,46.5089,313.605,-0.00017912,-3.136e-05,0.0,0 STARLINK-3218,1 49725U 21115B   22310.45029280 -.00003136  00000-0 -17912-3 0  9993,2 49725  53.2184 222.5090 0001768  46.5089 313.6050 15.08817986 51474,6917.948,95.439,541.036,538.59,0.0
49725.0,STARLINK-3218,PAYLOAD,2022-11-06 18:45:19,15.08827025,0.0002176,53.218,221.0277,30.1504,329.9613,0.00013076,1.793e-05,0.0,0 STARLINK-3218,1 49725U 21115B   22310.78147582  .00001793  00000-0  13076-3 0  9997,2 49725  53.2180 221.0277 0002176  30.1504 329.9613 15.08827025 52635,6917.92,95.438,541.29,538.28,0.0
49725.0,STARLINK-3218,PAYLOAD,2022-11-07 17:00:44,15.08823276,0.0001821,53.2174,216.8623,40.1376,319.975,0.00011702,1.574e-05,0.0,0 STARLINK-3218,1 49725U 21115B   22311.70884805  .00001574  00000-0  11702-3 0  9997,2 49725  53.2174 216.8623 0001821  40.1376 319.9750 15.08823276 52779,6917.932,95.439,541.056,538.5369999999998,0.0
49725.0,STARLINK-3218,PAYLOAD,2022-11-07 20:11:30,15.08828969,0.0001833,53.2172,216.2676,42.4506,317.6628,0.00016486,2.336e-05,0.0,0 STARLINK-3218,1 49725U 21115B   22311.84132420  .00002336  00000-0  16486-3 0  9992,2 49725  53.2172 216.2676 0001833  42.4506 317.6628 15.08828969 51684,6917.9140000000025,95.438,541.047,538.511,0.0
49725.0,STARLINK-3218,PAYLOAD,2022-11-08 02:33:02,15.08839178,0.0001875,53.2173,215.0779,38.9424,321.1703,0.00022932,3.363e-05,0.0,0 STARLINK-3218,1 49725U 21115B   22312.10627668  .00003363  00000-0  22932-3 0  9999,2 49725  53.2173 215.0779 0001875  38.9424 321.1703 15.08839178 52837,6917.8830000000025,95.438,541.045,538.451,0.0
49725.0,STARLINK-3218,PAYLOAD,2022-11-08 10:29:56,15.08861087,0.0001486,53.2174,213.5916,52.3824,307.7303,0.00018926,2.727e-05,0.0,0 STARLINK-3218,1 49725U 21115B   22312.43746049  .00002727  00000-0  18926-3 0  9991,2 49725  53.2174 213.5916 0001486  52.3824 307.7303 15.08861087 52881,6917.816,95.436,540.7090000000002,538.653,0.0
49725.0,STARLINK-3218,PAYLOAD,2022-11-08 18:26:51,15.08862146,0.000202,53.2172,212.1048,40.378,319.7362,0.000229,3.3600000000000004e-05,0.0,0 STARLINK-3218,1 49725U 21115B   22312.76865717  .00003360  00000-0  22900-3 0  9992,2 49725  53.2172 212.1048 0002020  40.3780 319.7362 15.08862146 51821,6917.813,95.436,541.075,538.28,0.0
49725.0,STARLINK-3218,PAYLOAD,2022-11-09 02:23:49,15.08837873,0.0002222,53.2176,210.6181,34.7314,325.3823,-5.197999999999998e-06,-3.71e-06,0.0,0 STARLINK-3218,1 49725U 21115B   22313.09987466 -.00000371  00000-0 -51980-5 0  9998,2 49725  53.2176 210.6181 0002222  34.7314 325.3823 15.08837873 52982,6917.887,95.438,541.289,538.215,0.0
49725.0,STARLINK-3218,PAYLOAD,2022-11-09 11:56:07,15.08837221,0.0001791,53.2174,208.8337,37.2166,322.895,4.6277e-05,4.48e-06,0.0,0 STARLINK-3218,1 49725U 21115B   22313.49731209  .00000448  00000-0  46277-4 0  9999,2 49725  53.2174 208.8337 0001791  37.2166 322.8950 15.08837221 51939,6917.889,95.438,540.993,538.515,0.0
49725.0,STARLINK-3218,PAYLOAD,2022-11-09 21:28:26,15.08835777,0.0001926,53.2174,207.0498,38.1221,321.9907,3.8028e-06,-2.28e-06,0.0,0 STARLINK-3218,1 49725U 21115B   22313.89475518 -.00000228  00000-0  38028-5 0  9994,2 49725  53.2174 207.0498 0001926  38.1221 321.9907 15.08835777 51992,6917.893,95.438,541.091,538.4259999999998,0.0
49725.0,STARLINK-3218,PAYLOAD,2022-11-10 11:46:55,15.08834018,0.0002134,53.2168,204.374,41.4714,318.6439,-0.00023996,-4.105e-05,0.0,0 STARLINK-3218,1 49725U 21115B   22314.49092286 -.00004105  00000-0 -23996-3 0  9993,2 49725  53.2168 204.3740 0002134  41.4714 318.6439 15.08834018 52082,6917.899,95.438,541.24,538.2869999999998,0.0
49725.0,STARLINK-3218,PAYLOAD,2022-11-10 19:43:52,15.0882727,0.0002128,53.217,202.8879,41.4569,318.6585,-0.00031847,-5.351e-05,0.0,0 STARLINK-3218,1 49725U 21115B   22314.82213103 -.00005351  00000-0 -31847-3 0  9991,2 49725  53.2170 202.8879 0002128  41.4569 318.6585 15.08827270 52132,6917.919,95.438,541.256,538.312,0.0
49725.0,STARLINK-3218,PAYLOAD,2022-11-10 22:54:38,15.08815814,0.0002644,53.2167,202.292,36.3134,323.8037,-0.00014137,-2.536e-05,0.0,0 STARLINK-3218,1 49725U 21115B   22314.95461313 -.00002536  00000-0 -14137-3 0  9998,2 49725  53.2167 202.2920 0002644  36.3134 323.8037 15.08815814 53269,6917.954000000002,95.439,541.648,537.99,0.0
49725.0,STARLINK-3218,PAYLOAD,2022-11-11 11:37:43,15.08821931,0.000204,53.2171,199.914,40.7863,319.3282,1.7523e-06,-2.6e-06,0.0,0 STARLINK-3218,1 49725U 21115B   22315.48453005 -.00000260  00000-0  17523-5 0  9991,2 49725  53.2171 199.9140 0002040  40.7863 319.3282 15.08821931 52233,6917.936,95.439,541.212,538.389,0.0
49725.0,STARLINK-3218,PAYLOAD,2022-11-11 17:59:15,15.08830866,0.0002136,53.2168,198.7245,42.8672,317.2487,-4.2013e-06,-3.55e-06,0.0,0 STARLINK-3218,1 49725U 21115B   22315.74948756 -.00000355  00000-0 -42013-5 0  9990,2 49725  53.2168 198.7245 0002136  42.8672 317.2487 15.08830866 53387,6917.908,95.438,541.251,538.2959999999998,0.0
49725.0,STARLINK-3218,PAYLOAD,2022-11-11 21:10:01,15.08831662,0.000207,53.2171,198.1299,41.8462,318.2688,7.085199999999999e-05,8.39e-06,0.0,0 STARLINK-3218,1 49725U 21115B   22315.88196594  .00000839  00000-0  70852-4 0  9996,2 49725  53.2171 198.1299 0002070  41.8462 318.2688 15.08831662 52295,6917.906,95.438,541.203,538.339,0.0
49725.0,STARLINK-3218,PAYLOAD,2022-11-12 11:28:29,15.08840169,0.0002242,53.2168,195.4534,43.7691,316.3479,0.00024926,3.681e-05,0.0,0 STARLINK-3218,1 49725U 21115B   22316.47811902  .00003681  00000-0  24926-3 0  9997,2 49725  53.2168 195.4534 0002242  43.7691 316.3479 15.08840169 52388,6917.88,95.438,541.2959999999998,538.194,0.0
49725.0,STARLINK-3218,PAYLOAD,2022-11-12 17:50:01,15.08844194,0.0002262,53.217,194.2646,43.5752,316.5419,0.0003951,6.006e-05,0.0,0 STARLINK-3218,1 49725U 21115B   22316.74307521  .00006006  00000-0  39510-3 0  9993,2 49725  53.2170 194.2646 0002262  43.5752 316.5419 15.08844194 53536,6917.868,95.437,541.297,538.168,0.0
49725.0,STARLINK-3218,PAYLOAD,2022-11-12 21:00:47,15.08844561,0.0002229,53.217,193.67,45.0553,315.062,0.00037755,5.726e-05,0.0,0 STARLINK-3218,1 49725U 21115B   22316.87555544  .00005726  00000-0  37755-3 0  9994,2 49725  53.2170 193.6700 0002229  45.0553 315.0620 15.08844561 52444,6917.866,95.437,541.273,538.189,0.0
49725.0,STARLINK-3218,PAYLOAD,2022-11-13 01:46:58,15.0884206,0.0002246,53.217,192.7777,43.4636,316.6533,0.00030969,4.644e-05,0.0,0 STARLINK-3218,1 49725U 21115B   22317.07428327  .00004644  00000-0  30969-3 0  9993,2 49725  53.2170 192.7777 0002246  43.4636 316.6533 15.08842060 53589,6917.874,95.437,541.293,538.185,0.0
49725.0,STARLINK-3218,PAYLOAD,2022-11-13 19:16:13,15.08830189,0.0002135,53.2151,189.505,43.7835,316.3326,-0.00010478,-1.955e-05,0.0,0 STARLINK-3218,1 49725U 21115B   22317.80293291 -.00001955  00000-0 -10478-3 0  9991,2 49725  53.2151 189.5050 0002135  43.7835 316.3326 15.08830189 53695,6917.91,95.438,541.252,538.298,0.0
49725.0,STARLINK-3218,PAYLOAD,2022-11-14 11:10:04,15.08844638,0.0002091,53.217,186.5331,43.9847,316.1312,-0.00010144,-1.903e-05,0.0,0 STARLINK-3218,1 49725U 21115B   22318.46533041 -.00001903  00000-0 -10144-3 0  9997,2 49725  53.2170 186.5331 0002091  43.9847 316.1312 15.08844638 52686,6917.866,95.437,541.178,538.285,0.0
49725.0,STARLINK-3218,PAYLOAD,2022-11-14 17:31:36,15.08848534,0.0002122,53.2168,185.3437,44.8719,315.2444,-5.8803e-05,-1.224e-05,0.0,0 STARLINK-3218,1 49725U 21115B   22318.73028563 -.00001224  00000-0 -58803-4 0  9996,2 49725  53.2168 185.3437 0002122  44.8719 315.2444 15.08848534 53833,6917.854,95.437,541.187,538.251,0.0
49725.0,STARLINK-3218,PAYLOAD,2022-11-15 07:50:05,15.08839015,0.0002195,53.2166,182.667,43.0791,317.0373,-2.999e-05,-7.66e-06,0.0,0 STARLINK-3218,1 49725U 21115B   22319.32644921 -.00000766  00000-0 -29990-4 0  9999,2 49725  53.2166 182.6670 0002195  43.0791 317.0373 15.08839015 53926,6917.8830000000025,95.438,541.2669999999998,538.23,0.0
49725.0,STARLINK-3218,PAYLOAD,2022-11-15 11:00:51,15.08841332,0.0002209,53.2165,182.0724,41.6276,318.4884,-5.1175e-05,-1.103e-05,0.0,0 STARLINK-3218,1 49725U 21115B   22319.45892849 -.00001103  00000-0 -51175-4 0  9993,2 49725  53.2165 182.0724 0002209  41.6276 318.4884 15.08841332 52833,6917.876,95.437,541.269,538.2130000000002,0.0
49725.0,STARLINK-3218,PAYLOAD,2022-11-15 20:33:10,15.08828296,0.000243,53.2165,180.2883,34.5336,325.5814,0.00013248,1.82e-05,0.0,0 STARLINK-3218,1 49725U 21115B   22319.85637426  .00001820  00000-0  13248-3 0  9997,2 49725  53.2165 180.2883 0002430  34.5336 325.5814 15.08828296 52895,6917.916,95.438,541.462,538.1,0.0
49725.0,STARLINK-3218,PAYLOAD,2022-11-15 22:08:33,15.08830366,0.0002079,53.2166,179.991,43.9101,316.2056,0.00012093,1.636e-05,0.0,0 STARLINK-3218,1 49725U 21115B   22319.92261282  .00001636  00000-0  12093-3 0  9990,2 49725  53.2166 179.9910 0002079  43.9101 316.2056 15.08830366 52903,6917.91,95.438,541.2130000000002,538.337,0.0
49725.0,STARLINK-3218,PAYLOAD,2022-11-16 17:13:10,15.0884553,0.0002082,53.2166,176.4221,44.4918,315.6241,8.3396e-05,1.039e-05,0.0,0 STARLINK-3218,1 49725U 21115B   22320.71748504  .00001039  00000-0  83396-4 0  9998,2 49725  53.2166 176.4221 0002082  44.4918 315.6241 15.08845530 54131,6917.863,95.437,541.169,538.288,0.0
